IRIDIUM 144             
1 43249U 18030A   25019.87383560  .00000061  00000+0  14775-4 0  9995
2 43249  86.4010 145.0044 0002089 100.8804 259.2626 14.34218067356564
IRIDIUM 149             
1 43250U 18030B   25019.88017835  .00000106  00000+0  30637-4 0  9992
2 43250  86.4009 144.9746 0002162  94.8483 265.2960 14.34216952356589
IRIDIUM 157             
1 43251U 18030C   25019.89920586  .00000037  00000+0  62974-5 0  9993
2 43251  86.4011 145.0083 0002012  89.5986 270.5441 14.34217952356564
IRIDIUM 140             
1 43252U 18030D   25019.84846397  .00000176  00000+0  55693-4 0  9999
2 43252  86.4011 145.0437 0002039 100.0545 260.0881 14.34218949356612
IRIDIUM 145             
1 43253U 18030E   25019.83578113  .00000049  00000+0  10297-4 0  9997
2 43253  86.4011 145.0218 0002406 100.6326 259.5141 14.34217891356540
IRIDIUM 146             
1 43254U 18030F   25019.88652102 -.00000002  00000+0 -76862-5 0  9996
2 43254  86.4014 145.0149 0002257 104.1997 255.9450 14.34217715356564
IRIDIUM 148             
1 43255U 18030G   25019.85480826  .00000092  00000+0  25810-4 0  9999
2 43255  86.4013 145.0632 0002287  95.6023 264.5433 14.34217720356594
IRIDIUM 142             
1 43256U 18030H   25019.82309544  .00000035  00000+0  56081-5 0  9996
2 43256  86.4008 144.9842 0002541  98.5252 261.6232 14.34217927356559
